CCSDS_OMM_VERS = 2.0
CREATION_DATE  = 
ORIGINATOR     = 

OBJECT_NAME    = SOYUZ-MS 28
OBJECT_ID      = 2025-275A
CENTER_NAME    = EARTH
REF_FRAME      = TEME
TIME_SYSTEM    = UTC
MEAN_ELEMENT_THEORY = SGP/SGP4

EPOCH          = 2026-01-14T15:04:24.142944
MEAN_MOTION    = 15.49289811
ECCENTRICITY   = .00077638
INCLINATION    = 51.6333
RA_OF_ASC_NODE = 339.6562
ARG_OF_PERICENTER = 17.9854
MEAN_ANOMALY   = 342.1408

EPHEMERIS_TYPE = 0
CLASSIFICATION_TYPE = U
NORAD_CAT_ID   = 66664
ELEMENT_SET_NO = 999
REV_AT_EPOCH   = 128
BSTAR          = .13043682E-3
MEAN_MOTION_DOT = .6818E-4
MEAN_MOTION_DDOT = 0

CCSDS_OMM_VERS = 2.0
CREATION_DATE  = 
ORIGINATOR     = 

OBJECT_NAME    = DUPLEX
OBJECT_ID      = 1998-067XS
CENTER_NAME    = EARTH
REF_FRAME      = TEME
TIME_SYSTEM    = UTC
MEAN_ELEMENT_THEORY = SGP/SGP4

EPOCH          = 2026-01-14T07:42:17.522496
MEAN_MOTION    = 15.52452216
ECCENTRICITY   = .00022545
INCLINATION    = 51.6318
RA_OF_ASC_NODE = 340.6080
ARG_OF_PERICENTER = 11.6436
MEAN_ANOMALY   = 348.4605

EPHEMERIS_TYPE = 0
CLASSIFICATION_TYPE = U
NORAD_CAT_ID   = 66906
ELEMENT_SET_NO = 999
REV_AT_EPOCH   = 667
BSTAR          = .30586371E-3
MEAN_MOTION_DOT = .18629E-3
MEAN_MOTION_DDOT = 0

CCSDS_OMM_VERS = 2.0
CREATION_DATE  = 
ORIGINATOR     = 

OBJECT_NAME    = 1998-067XT
OBJECT_ID      = 1998-067XT
CENTER_NAME    = EARTH
REF_FRAME      = TEME
TIME_SYSTEM    = UTC
MEAN_ELEMENT_THEORY = SGP/SGP4

EPOCH          = 2026-01-14T06:30:38.263680
MEAN_MOTION    = 15.56293916
ECCENTRICITY   = .00036291
INCLINATION    = 51.6311
RA_OF_ASC_NODE = 340.2751
ARG_OF_PERICENTER = 58.4137
MEAN_ANOMALY   = 301.7208

EPHEMERIS_TYPE = 0
CLASSIFICATION_TYPE = U
NORAD_CAT_ID   = 66907
ELEMENT_SET_NO = 999
REV_AT_EPOCH   = 667
BSTAR          = .71443219E-3
MEAN_MOTION_DOT = .51061E-3
MEAN_MOTION_DDOT = 0

CCSDS_OMM_VERS = 2.0
CREATION_DATE  = 
ORIGINATOR     = 

OBJECT_NAME    = 1998-067XU
OBJECT_ID      = 1998-067XU
CENTER_NAME    = EARTH
REF_FRAME      = TEME
TIME_SYSTEM    = UTC
MEAN_ELEMENT_THEORY = SGP/SGP4

EPOCH          = 2026-01-14T06:29:17.865888
MEAN_MOTION    = 15.56263291
ECCENTRICITY   = .00035529
INCLINATION    = 51.6306
RA_OF_ASC_NODE = 340.2677
ARG_OF_PERICENTER = 53.6939
MEAN_ANOMALY   = 306.4380

EPHEMERIS_TYPE = 0
CLASSIFICATION_TYPE = U
NORAD_CAT_ID   = 66908
ELEMENT_SET_NO = 999
REV_AT_EPOCH   = 667
BSTAR          = .71282154E-3
MEAN_MOTION_DOT = .50885E-3
MEAN_MOTION_DDOT = 0

CCSDS_OMM_VERS = 2.0
CREATION_DATE  = 
ORIGINATOR     = 

OBJECT_NAME    = SILVERSAT
OBJECT_ID      = 1998-067XV
CENTER_NAME    = EARTH
REF_FRAME      = TEME
TIME_SYSTEM    = UTC
MEAN_ELEMENT_THEORY = SGP/SGP4

EPOCH          = 2026-01-14T07:49:50.540160
MEAN_MOTION    = 15.56976971
ECCENTRICITY   = .00038132
INCLINATION    = 51.6311
RA_OF_ASC_NODE = 339.8918
ARG_OF_PERICENTER = 65.7143
MEAN_ANOMALY   = 294.4246

EPHEMERIS_TYPE = 0
CLASSIFICATION_TYPE = U
NORAD_CAT_ID   = 66909
ELEMENT_SET_NO = 999
REV_AT_EPOCH   = 668
BSTAR          = .80426426E-3
MEAN_MOTION_DOT = .59095E-3
MEAN_MOTION_DDOT = 0

CCSDS_OMM_VERS = 2.0
CREATION_DATE  = 
ORIGINATOR     = 

OBJECT_NAME    = 1998-067XW
OBJECT_ID      = 1998-067XW
CENTER_NAME    = EARTH
REF_FRAME      = TEME
TIME_SYSTEM    = UTC
MEAN_ELEMENT_THEORY = SGP/SGP4

EPOCH          = 2026-01-14T06:19:23.208384
MEAN_MOTION    = 15.56596403
ECCENTRICITY   = .0002567
INCLINATION    = 51.6290
RA_OF_ASC_NODE = 340.2206
ARG_OF_PERICENTER = 39.5556
MEAN_ANOMALY   = 320.5622

EPHEMERIS_TYPE = 0
CLASSIFICATION_TYPE = U
NORAD_CAT_ID   = 66910
ELEMENT_SET_NO = 999
REV_AT_EPOCH   = 667
BSTAR          = .72829646E-3
MEAN_MOTION_DOT = .52659E-3
MEAN_MOTION_DDOT = 0

CCSDS_OMM_VERS = 2.0
CREATION_DATE  = 
ORIGINATOR     = 

OBJECT_NAME    = 1998-067XX
OBJECT_ID      = 1998-067XX
CENTER_NAME    = EARTH
REF_FRAME      = TEME
TIME_SYSTEM    = UTC
MEAN_ELEMENT_THEORY = SGP/SGP4

EPOCH          = 2026-01-14T02:53:20.450976
MEAN_MOTION    = 15.57721818
ECCENTRICITY   = .0002648
INCLINATION    = 51.6292
RA_OF_ASC_NODE = 340.7659
ARG_OF_PERICENTER = 57.3033
MEAN_ANOMALY   = 302.8214

EPHEMERIS_TYPE = 0
CLASSIFICATION_TYPE = U
NORAD_CAT_ID   = 66911
ELEMENT_SET_NO = 999
REV_AT_EPOCH   = 664
BSTAR          = .89221938E-3
MEAN_MOTION_DOT = .67538E-3
MEAN_MOTION_DDOT = 0

CCSDS_OMM_VERS = 2.0
CREATION_DATE  = 
ORIGINATOR     = 

OBJECT_NAME    = 1998-067XY
OBJECT_ID      = 1998-067XY
CENTER_NAME    = EARTH
REF_FRAME      = TEME
TIME_SYSTEM    = UTC
MEAN_ELEMENT_THEORY = SGP/SGP4

EPOCH          = 2026-01-14T06:56:50.197632
MEAN_MOTION    = 15.54874578
ECCENTRICITY   = .00034513
INCLINATION    = 51.6311
RA_OF_ASC_NODE = 340.3961
ARG_OF_PERICENTER = 41.1632
MEAN_ANOMALY   = 318.9619

EPHEMERIS_TYPE = 0
CLASSIFICATION_TYPE = U
NORAD_CAT_ID   = 66912
ELEMENT_SET_NO = 999
REV_AT_EPOCH   = 666
BSTAR          = .5660808E-3
MEAN_MOTION_DOT = .38217E-3
MEAN_MOTION_DDOT = 0

