SOYUZ-MS 28             
1 66664U 25275A   26014.62805721  .00006818  00000+0  13044-3 0  9990
2 66664  51.6333 339.6562 0007763  17.9854 342.1408 15.49289811  1283
DUPLEX                  
1 66906U 98067XS  26014.32103614  .00018629  00000+0  30586-3 0  9990
2 66906  51.6318 340.6080 0002254  11.6436 348.4605 15.52452216  6670
1998-067XT              
1 66907U 98067XT  26014.27127620  .00051061  00000+0  71443-3 0  9992
2 66907  51.6311 340.2751 0003629  58.4137 301.7208 15.56293916  6674
1998-067XU              
1 66908U 98067XU  26014.27034567  .00050885  00000+0  71282-3 0  9994
2 66908  51.6306 340.2677 0003552  53.6939 306.4380 15.56263291  6674
SILVERSAT               
1 66909U 98067XV  26014.32627940  .00059095  00000+0  80426-3 0  9996
2 66909  51.6311 339.8918 0003813  65.7143 294.4246 15.56976971  6688
1998-067XW              
1 66910U 98067XW  26014.26346306  .00052659  00000+0  72830-3 0  9994
2 66910  51.6290 340.2206 0002567  39.5556 320.5622 15.56596403  6670
1998-067XX              
1 66911U 98067XX  26014.12037559  .00067538  00000+0  89222-3 0  9992
2 66911  51.6292 340.7659 0002648  57.3033 302.8214 15.57721818  6646
1998-067XY              
1 66912U 98067XY  26014.28946988  .00038217  00000+0  56608-3 0  9999
2 66912  51.6311 340.3961 0003451  41.1632 318.9619 15.54874578  6668
